OBJECT_NAME,OBJECT_ID,EPOCH,MEAN_MOTION,ECCENTRICITY,INCLINATION,RA_OF_ASC_NODE,ARG_OF_PERICENTER,MEAN_ANOMALY,EPHEMERIS_TYPE,CLASSIFICATION_TYPE,NORAD_CAT_ID,ELEMENT_SET_NO,REV_AT_EPOCH,BSTAR,MEAN_MOTION_DOT,MEAN_MOTION_DDOT
STARLINK-37736,2026-115R,2026-06-06T04:00:03.998880,15.80846509,.0000814,97.2838,174.0365,77.9834,31.2988,0,U,69226,999,292,-.46785E-3,-.88969E-3,0
STARLINK-37737,2026-115S,2026-06-06T04:00:03.998880,15.80861650,.0000912,97.2831,174.0412,94.4125,26.2087,0,U,69227,999,294,-.63679E-3,-.120693E-2,0
STARLINK-37618,2026-115T,2026-06-06T04:00:03.998880,15.80835368,.0001359,97.2834,174.0500,116.8717,24.5252,0,U,69228,999,292,-.4613E-3,-.87698E-3,0
STARLINK-37679,2026-115U,2026-06-06T04:00:03.998880,15.80840222,.0001363,97.2831,174.0459,115.3213,17.6692,0,U,69229,999,292,-.52471E-3,-.99621E-3,0
STARLINK-37746,2026-115V,2026-06-06T04:00:03.998880,15.80861670,.0001184,97.2832,174.0428,76.0818,48.1749,0,U,69230,999,292,-.65488E-3,-.124073E-2,0
STARLINK-37557,2026-115W,2026-06-06T04:00:03.998880,15.80832377,.0001256,97.2837,174.0508,107.3823,35.0784,0,U,69231,999,292,-.40791E-3,-.77643E-3,0
STARLINK-37745,2026-115X,2026-06-06T04:00:03.998880,15.80939681,.0001119,97.2831,174.0608,93.1110,72.2526,0,U,69232,999,292,-.1003E-2,-.189223E-2,0
STARLINK-37739,2026-115Y,2026-06-06T04:00:03.998880,15.80858694,.0001049,97.2833,174.0490,86.0967,51.6720,0,U,69233,999,292,-.64412E-3,-.122047E-2,0
STARLINK-37755,2026-115Z,2026-06-06T04:00:03.998880,15.75953382,.0001668,97.2842,174.0508,70.1440,72.1407,0,U,69234,999,292,-.83912E-2,-.1154415E-1,0
STARLINK-37665,2026-117A,2026-06-06T04:00:03.998880,15.92116006,.0000928,53.1588,299.0296,62.7268,123.9597,0,U,69238,999,239,-.67703E-2,-.2293228E-1,.14096E-2
STARLINK-37558,2026-117B,2026-06-06T04:00:03.998880,15.92261682,.0000789,53.1586,299.0186,61.3793,130.6630,0,U,69239,999,239,-.6905E-2,-.2355942E-1,.14864E-2
STARLINK-37680,2026-117C,2026-06-06T04:00:03.998880,15.92529969,.0000848,53.1588,299.0066,59.0784,138.7199,0,U,69240,999,238,-.67502E-2,-.2335801E-1,.14664E-2
STARLINK-37742,2026-117D,2026-06-06T04:00:03.998880,15.92964052,.0000851,53.1587,298.9953,58.3383,144.8621,0,U,69241,999,239,-.64435E-2,-.2281475E-1,.14084E-2
STARLINK-37718,2026-117E,2026-06-06T04:00:03.998880,15.93248851,.0000663,53.1587,298.9848,60.6528,147.5538,0,U,69242,999,238,-.64254E-2,-.230904E-1,.14455E-2
STARLINK-37735,2026-117F,2026-06-06T04:00:03.998880,15.93105092,.0000695,53.1585,298.9774,64.6142,147.1078,0,U,69243,999,239,-.66967E-2,-.2387609E-1,.15389E-2
STARLINK-37757,2026-117G,2026-06-06T04:00:03.998880,15.93632319,.000068,53.1585,298.9611,58.0298,161.4757,0,U,69244,999,239,-.63508E-2,-.2328695E-1,.14752E-2
STARLINK-37767,2026-117H,2026-06-06T04:00:03.998880,15.94541214,.0000715,53.1580,298.9294,61.9610,172.9394,0,U,69245,999,239,-.60091E-2,-.23127E-1,.14704E-2
STARLINK-35759,2026-117J,2026-06-06T04:00:03.998880,15.94611318,.000077,53.1580,298.9216,64.4100,174.1539,0,U,69246,999,244,-.60279E-2,-.2328493E-1,.14909E-2
STARLINK-37238,2026-117K,2026-06-06T04:00:03.998880,15.95620424,.0000686,53.1579,298.8962,63.6410,186.9387,0,U,69247,999,240,-.54843E-2,-.2237667E-1,.1397E-2
STARLINK-37412,2026-117L,2026-06-06T04:00:03.998880,15.96352922,.0000567,53.1578,298.8731,54.9300,206.9500,0,U,69248,999,246,-.52453E-2,-.2227259E-1,.13959E-2
STARLINK-37398,2026-117M,2026-06-06T04:00:03.998880,15.96358877,.0000506,53.1574,298.8665,64.7068,200.0769,0,U,69249,999,246,-.5326E-2,-.2261902E-1,.14379E-2
STARLINK-37499,2026-117N,2026-06-06T04:00:03.998880,15.96608245,.0000682,53.1576,298.8568,63.2023,206.4509,0,U,69250,999,246,-.52839E-2,-.2274776E-1,.14578E-2
STARLINK-37489,2026-117P,2026-06-06T04:00:03.998880,15.96890774,.0000557,53.1576,298.8419,54.3455,222.2827,0,U,69251,999,246,-.52018E-2,-.2274409E-1,.1462E-2
STARLINK-37434,2026-117Q,2026-06-06T04:00:03.998880,15.97466620,.0000538,53.1572,298.8269,55.2871,228.4142,0,U,69252,999,240,-.48832E-2,-.2204767E-1,.13864E-2
STARLINK-37368,2026-117R,2026-06-06T04:00:03.998880,15.98767444,.0000586,53.1570,298.7917,54.2431,246.4431,0,U,69253,999,246,-.43504E-2,-.2113203E-1,.12978E-2
STARLINK-37517,2026-117S,2026-06-05T20:43:57.421056,16.00665951,.0000857,53.1570,300.3429,23.5974,336.5096,0,U,69254,999,118,-.15399E-2,-.842962E-2,.24586E-3
STARLINK-37378,2026-117T,2026-06-06T04:00:03.998880,15.98948030,.0000489,53.1571,298.7742,55.2611,253.7656,0,U,69255,999,239,-.43519E-2,-.2135314E-1,.13265E-2
STARLINK-37396,2026-117U,2026-06-06T04:00:03.998880,15.99390364,.000039,53.1569,298.7564,62.8201,254.5598,0,U,69256,999,247,-.42755E-2,-.2150826E-1,.1352E-2
