[ {"name": "STARLINK-37736", "line1": "1 69226U 26115R   26157.16671295 -.00088969  00000+0 -46785-3 0  9992", "line2": "2 69226  97.2838 174.0365 0000814  77.9834  31.2988 15.80846509  2921"}, {"name": "STARLINK-37737", "line1": "1 69227U 26115S   26157.16671295 -.00120693  00000+0 -63679-3 0  9995", "line2": "2 69227  97.2831 174.0412 0000912  94.4125  26.2087 15.80861650  2944"}, {"name": "STARLINK-37618", "line1": "1 69228U 26115T   26157.16671295 -.00087698  00000+0 -46130-3 0  9996", "line2": "2 69228  97.2834 174.0500 0001359 116.8717  24.5252 15.80835368  2928"}, {"name": "STARLINK-37679", "line1": "1 69229U 26115U   26157.16671295 -.00099621  00000+0 -52471-3 0  9991", "line2": "2 69229  97.2831 174.0459 0001363 115.3213  17.6692 15.80840222  2925"}, {"name": "STARLINK-37746", "line1": "1 69230U 26115V   26157.16671295 -.00124073  00000+0 -65488-3 0  9995", "line2": "2 69230  97.2832 174.0428 0001184  76.0818  48.1749 15.80861670  2921"}, {"name": "STARLINK-37557", "line1": "1 69231U 26115W   26157.16671295 -.00077643  00000+0 -40791-3 0  9996", "line2": "2 69231  97.2837 174.0508 0001256 107.3823  35.0784 15.80832377  2926"}, {"name": "STARLINK-37745", "line1": "1 69232U 26115X   26157.16671295 -.00189223  00000+0 -10030-2 0  9997", "line2": "2 69232  97.2831 174.0608 0001119  93.1110  72.2526 15.80939681  2924"}, {"name": "STARLINK-37739", "line1": "1 69233U 26115Y   26157.16671295 -.00122047  00000+0 -64412-3 0  9993", "line2": "2 69233  97.2833 174.0490 0001049  86.0967  51.6720 15.80858694  2920"}, {"name": "STARLINK-37755", "line1": "1 69234U 26115Z   26157.16671295 -.01154415  00000+0 -83912-2 0  9994", "line2": "2 69234  97.2842 174.0508 0001668  70.1440  72.1407 15.75953382  2922"}, {"name": "STARLINK-37665", "line1": "1 69238U 26117A   26157.16671295 -.02293228  14096-2 -67703-2 0  9990", "line2": "2 69238  53.1588 299.0296 0000928  62.7268 123.9597 15.92116006  2398"}, {"name": "STARLINK-37558", "line1": "1 69239U 26117B   26157.16671295 -.02355942  14864-2 -69050-2 0  9993", "line2": "2 69239  53.1586 299.0186 0000789  61.3793 130.6630 15.92261682  2392"}, {"name": "STARLINK-37680", "line1": "1 69240U 26117C   26157.16671295 -.02335801  14664-2 -67502-2 0  9995", "line2": "2 69240  53.1588 299.0066 0000848  59.0784 138.7199 15.92529969  2386"}, {"name": "STARLINK-37742", "line1": "1 69241U 26117D   26157.16671295 -.02281475  14084-2 -64435-2 0  9991", "line2": "2 69241  53.1587 298.9953 0000851  58.3383 144.8621 15.92964052  2395"}, {"name": "STARLINK-37718", "line1": "1 69242U 26117E   26157.16671295 -.02309040  14455-2 -64254-2 0  9992", "line2": "2 69242  53.1587 298.9848 0000663  60.6528 147.5538 15.93248851  2386"}, {"name": "STARLINK-37735", "line1": "1 69243U 26117F   26157.16671295 -.02387609  15389-2 -66967-2 0  9990", "line2": "2 69243  53.1585 298.9774 0000695  64.6142 147.1078 15.93105092  2399"}, {"name": "STARLINK-37757", "line1": "1 69244U 26117G   26157.16671295 -.02328695  14752-2 -63508-2 0  9992", "line2": "2 69244  53.1585 298.9611 0000680  58.0298 161.4757 15.93632319  2393"}, {"name": "STARLINK-37767", "line1": "1 69245U 26117H   26157.16671295 -.02312700  14704-2 -60091-2 0  9994", "line2": "2 69245  53.1580 298.9294 0000715  61.9610 172.9394 15.94541214  2394"}, {"name": "STARLINK-35759", "line1": "1 69246U 26117J   26157.16671295 -.02328493  14909-2 -60279-2 0  9996", "line2": "2 69246  53.1580 298.9216 0000770  64.4100 174.1539 15.94611318  2446"}, {"name": "STARLINK-37238", "line1": "1 69247U 26117K   26157.16671295 -.02237667  13970-2 -54843-2 0  9996", "line2": "2 69247  53.1579 298.8962 0000686  63.6410 186.9387 15.95620424  2400"}, {"name": "STARLINK-37412", "line1": "1 69248U 26117L   26157.16671295 -.02227259  13959-2 -52453-2 0  9995", "line2": "2 69248  53.1578 298.8731 0000567  54.9300 206.9500 15.96352922  2465"}, {"name": "STARLINK-37398", "line1": "1 69249U 26117M   26157.16671295 -.02261902  14379-2 -53260-2 0  9993", "line2": "2 69249  53.1574 298.8665 0000506  64.7068 200.0769 15.96358877  2468"}, {"name": "STARLINK-37499", "line1": "1 69250U 26117N   26157.16671295 -.02274776  14578-2 -52839-2 0  9990", "line2": "2 69250  53.1576 298.8568 0000682  63.2023 206.4509 15.96608245  2463"}, {"name": "STARLINK-37489", "line1": "1 69251U 26117P   26157.16671295 -.02274409  14620-2 -52018-2 0  9991", "line2": "2 69251  53.1576 298.8419 0000557  54.3455 222.2827 15.96890774  2469"}, {"name": "STARLINK-37434", "line1": "1 69252U 26117Q   26157.16671295 -.02204767  13864-2 -48832-2 0  9990", "line2": "2 69252  53.1572 298.8269 0000538  55.2871 228.4142 15.97466620  2402"}, {"name": "STARLINK-37368", "line1": "1 69253U 26117R   26157.16671295 -.02113203  12978-2 -43504-2 0  9991", "line2": "2 69253  53.1570 298.7917 0000586  54.2431 246.4431 15.98767444  2460"}, {"name": "STARLINK-37517", "line1": "1 69254U 26117S   26156.86385904 -.00842962  24586-3 -15399-2 0  9996", "line2": "2 69254  53.1570 300.3429 0000857  23.5974 336.5096 16.00665951  1181"}, {"name": "STARLINK-37378", "line1": "1 69255U 26117T   26157.16671295 -.02135314  13265-2 -43519-2 0  9996", "line2": "2 69255  53.1571 298.7742 0000489  55.2611 253.7656 15.98948030  2396"}, {"name": "STARLINK-37396", "line1": "1 69256U 26117U   26157.16671295 -.02150826  13520-2 -42755-2 0  9997", "line2": "2 69256  53.1569 298.7564 0000390  62.8201 254.5598 15.99390364  2471"}]